[{"OBJECT_NAME":"STARLINK-3095","OBJECT_ID":"2021-082AG","EPOCH":"2025-09-27T15:33:54.715680","MEAN_MOTION":14.98348059,"ECCENTRICITY":0.00029174,"INCLINATION":69.9999,"RA_OF_ASC_NODE":345.5253,"ARG_OF_PERICENTER":271.1889,"MEAN_ANOMALY":88.8936,"EPHEMERIS_TYPE":0,"CLASSIFICATION_TYPE":"U","NORAD_CAT_ID":49160,"ELEMENT_SET_NO":999,"REV_AT_EPOCH":22262,"BSTAR":-0.00022795598,"MEAN_MOTION_DOT":-2.813e-5,"MEAN_MOTION_DDOT":0},{"OBJECT_NAME":"STARLINK-3080","OBJECT_ID":"2021-082AH","EPOCH":"2025-09-27T15:39:55.784736","MEAN_MOTION":14.98342168,"ECCENTRICITY":0.00037938,"INCLINATION":70.0003,"RA_OF_ASC_NODE":345.5119,"ARG_OF_PERICENTER":267.182,"MEAN_ANOMALY":92.8904,"EPHEMERIS_TYPE":0,"CLASSIFICATION_TYPE":"U","NORAD_CAT_ID":49161,"ELEMENT_SET_NO":999,"REV_AT_EPOCH":22263,"BSTAR":-5.9695622e-5,"MEAN_MOTION_DOT":-8.06e-6,"MEAN_MOTION_DDOT":0},{"OBJECT_NAME":"STARLINK-3088","OBJECT_ID":"2021-082AK","EPOCH":"2025-09-28T04:47:19.874112","MEAN_MOTION":14.9751221,"ECCENTRICITY":0.00035164,"INCLINATION":69.9992,"RA_OF_ASC_NODE":324.4231,"ARG_OF_PERICENTER":270.8839,"MEAN_ANOMALY":89.1916,"EPHEMERIS_TYPE":0,"CLASSIFICATION_TYPE":"U","NORAD_CAT_ID":49163,"ELEMENT_SET_NO":999,"REV_AT_EPOCH":22328,"BSTAR":0.00019455882,"MEAN_MOTION_DOT":2.181e-5,"MEAN_MOTION_DDOT":0},{"OBJECT_NAME":"STARLINK-3106","OBJECT_ID":"2021-082AL","EPOCH":"2025-09-28T06:40:51.440160","MEAN_MOTION":14.9833281,"ECCENTRICITY":0.00030602,"INCLINATION":69.9996,"RA_OF_ASC_NODE":323.9451,"ARG_OF_PERICENTER":272.1855,"MEAN_ANOMALY":87.8954,"EPHEMERIS_TYPE":0,"CLASSIFICATION_TYPE":"U","NORAD_CAT_ID":49164,"ELEMENT_SET_NO":999,"REV_AT_EPOCH":22331,"BSTAR":7.9986008e-5,"MEAN_MOTION_DOT":8.62e-6,"MEAN_MOTION_DDOT":0},{"OBJECT_NAME":"STARLINK-3052","OBJECT_ID":"2021-082AM","EPOCH":"2025-09-28T05:53:07.502208","MEAN_MOTION":14.9833156,"ECCENTRICITY":0.0003145,"INCLINATION":70.0004,"RA_OF_ASC_NODE":344.0532,"ARG_OF_PERICENTER":266.5459,"MEAN_ANOMALY":93.5341,"EPHEMERIS_TYPE":0,"CLASSIFICATION_TYPE":"U","NORAD_CAT_ID":49165,"ELEMENT_SET_NO":999,"REV_AT_EPOCH":22284,"BSTAR":3.4780746e-5,"MEAN_MOTION_DOT":3.22e-6,"MEAN_MOTION_DDOT":0},{"OBJECT_NAME":"STARLINK-3089","OBJECT_ID":"2021-082AN","EPOCH":"2025-09-28T04:41:18.284064","MEAN_MOTION":14.97522134,"ECCENTRICITY":0.00034063,"INCLINATION":69.9989,"RA_OF_ASC_NODE":324.4381,"ARG_OF_PERICENTER":271.0645,"MEAN_ANOMALY":89.0124,"EPHEMERIS_TYPE":0,"CLASSIFICATION_TYPE":"U","NORAD_CAT_ID":49166,"ELEMENT_SET_NO":999,"REV_AT_EPOCH":22332,"BSTAR":-0.00016768585,"MEAN_MOTION_DOT":-2.051e-5,"MEAN_MOTION_DDOT":0},{"OBJECT_NAME":"STARLINK-3054","OBJECT_ID":"2021-082AP","EPOCH":"2025-09-28T05:41:06.599616","MEAN_MOTION":14.98328891,"ECCENTRICITY":0.0002745,"INCLINATION":70.0007,"RA_OF_ASC_NODE":344.0503,"ARG_OF_PERICENTER":266.6678,"MEAN_ANOMALY":93.4167,"EPHEMERIS_TYPE":0,"CLASSIFICATION_TYPE":"U","NORAD_CAT_ID":49167,"ELEMENT_SET_NO":999,"REV_AT_EPOCH":22284,"BSTAR":9.9801801e-5,"MEAN_MOTION_DOT":1.098e-5,"MEAN_MOTION_DDOT":0},{"OBJECT_NAME":"STARLINK-3046","OBJECT_ID":"2021-082AR","EPOCH":"2025-09-28T06:34:50.919744","MEAN_MOTION":14.98331352,"ECCENTRICITY":0.00029736,"INCLINATION":69.9994,"RA_OF_ASC_NODE":323.9742,"ARG_OF_PERICENTER":269.0446,"MEAN_ANOMALY":91.0372,"EPHEMERIS_TYPE":0,"CLASSIFICATION_TYPE":"U","NORAD_CAT_ID":49169,"ELEMENT_SET_NO":999,"REV_AT_EPOCH":22214,"BSTAR":1.3957761e-5,"MEAN_MOTION_DOT":7.4e-7,"MEAN_MOTION_DDOT":0},{"OBJECT_NAME":"STARLINK-3107","OBJECT_ID":"2021-082AT","EPOCH":"2025-09-27T15:36:53.752896","MEAN_MOTION":15.02482019,"ECCENTRICITY":0.00015026,"INCLINATION":69.9998,"RA_OF_ASC_NODE":344.441,"ARG_OF_PERICENTER":242.7773,"MEAN_ANOMALY":117.3235,"EPHEMERIS_TYPE":0,"CLASSIFICATION_TYPE":"U","NORAD_CAT_ID":49171,"ELEMENT_SET_NO":999,"REV_AT_EPOCH":22274,"BSTAR":0.0012502648,"MEAN_MOTION_DOT":0.00016569,"MEAN_MOTION_DDOT":0},{"OBJECT_NAME":"STARLINK-3045","OBJECT_ID":"2021-082AV","EPOCH":"2025-09-28T04:40:41.540736","MEAN_MOTION":14.98330551,"ECCENTRICITY":0.00029778,"INCLINATION":69.9996,"RA_OF_ASC_NODE":324.1563,"ARG_OF_PERICENTER":270.807,"MEAN_ANOMALY":89.2748,"EPHEMERIS_TYPE":0,"CLASSIFICATION_TYPE":"U","NORAD_CAT_ID":49173,"ELEMENT_SET_NO":999,"REV_AT_EPOCH":22213,"BSTAR":9.862672e-6,"MEAN_MOTION_DOT":2.5e-7,"MEAN_MOTION_DDOT":0},{"OBJECT_NAME":"STARLINK-3047","OBJECT_ID":"2021-082AW","EPOCH":"2025-09-28T06:00:02.999808","MEAN_MOTION":15.79479773,"ECCENTRICITY":0.00051593,"INCLINATION":69.9758,"RA_OF_ASC_NODE":259.133,"ARG_OF_PERICENTER":298.5659,"MEAN_ANOMALY":68.2484,"EPHEMERIS_TYPE":0,"CLASSIFICATION_TYPE":"U","NORAD_CAT_ID":49174,"ELEMENT_SET_NO":999,"REV_AT_EPOCH":600,"BSTAR":0.0014027775,"MEAN_MOTION_DOT":0.00262688,"MEAN_MOTION_DDOT":0},{"OBJECT_NAME":"STARLINK-3087","OBJECT_ID":"2021-082AX","EPOCH":"2025-09-28T03:48:14.469120","MEAN_MOTION":14.97523338,"ECCENTRICITY":0.0003487,"INCLINATION":69.9995,"RA_OF_ASC_NODE":324.6625,"ARG_OF_PERICENTER":269.081,"MEAN_ANOMALY":90.995,"EPHEMERIS_TYPE":0,"CLASSIFICATION_TYPE":"U","NORAD_CAT_ID":49175,"ELEMENT_SET_NO":999,"REV_AT_EPOCH":22211,"BSTAR":3.0307582e-5,"MEAN_MOTION_DOT":2.62e-6,"MEAN_MOTION_DDOT":0},{"OBJECT_NAME":"STARLINK-3069","OBJECT_ID":"2021-082AY","EPOCH":"2025-09-28T06:40:31.378944","MEAN_MOTION":14.98336811,"ECCENTRICITY":0.00032292,"INCLINATION":69.9983,"RA_OF_ASC_NODE":303.9487,"ARG_OF_PERICENTER":271.6233,"MEAN_ANOMALY":88.4556,"EPHEMERIS_TYPE":0,"CLASSIFICATION_TYPE":"U","NORAD_CAT_ID":49176,"ELEMENT_SET_NO":999,"REV_AT_EPOCH":22263,"BSTAR":4.0795663e-5,"MEAN_MOTION_DOT":3.94e-6,"MEAN_MOTION_DDOT":0},{"OBJECT_NAME":"STARLINK-3103","OBJECT_ID":"2021-082AZ","EPOCH":"2025-09-28T05:34:26.209920","MEAN_MOTION":14.98329957,"ECCENTRICITY":0.00030631,"INCLINATION":69.9979,"RA_OF_ASC_NODE":304.0757,"ARG_OF_PERICENTER":269.2609,"MEAN_ANOMALY":90.8199,"EPHEMERIS_TYPE":0,"CLASSIFICATION_TYPE":"U","NORAD_CAT_ID":49177,"ELEMENT_SET_NO":999,"REV_AT_EPOCH":22382,"BSTAR":3.9931206e-5,"MEAN_MOTION_DOT":3.83e-6,"MEAN_MOTION_DDOT":0},{"OBJECT_NAME":"STARLINK-3086","OBJECT_ID":"2021-082BA","EPOCH":"2025-09-27T15:45:56.601504","MEAN_MOTION":14.98334567,"ECCENTRICITY":0.00029687,"INCLINATION":70.0005,"RA_OF_ASC_NODE":345.5104,"ARG_OF_PERICENTER":269.6611,"MEAN_ANOMALY":90.4208,"EPHEMERIS_TYPE":0,"CLASSIFICATION_TYPE":"U","NORAD_CAT_ID":49178,"ELEMENT_SET_NO":999,"REV_AT_EPOCH":22271,"BSTAR":2.7836647e-5,"MEAN_MOTION_DOT":2.39e-6,"MEAN_MOTION_DDOT":0},{"OBJECT_NAME":"STARLINK-3043","OBJECT_ID":"2021-082BB","EPOCH":"2025-09-28T05:16:24.583872","MEAN_MOTION":14.983309,"ECCENTRICITY":0.00032776,"INCLINATION":69.9983,"RA_OF_ASC_NODE":304.0898,"ARG_OF_PERICENTER":269.5753,"MEAN_ANOMALY":90.503,"EPHEMERIS_TYPE":0,"CLASSIFICATION_TYPE":"U","NORAD_CAT_ID":49179,"ELEMENT_SET_NO":999,"REV_AT_EPOCH":22262,"BSTAR":1.7661623e-5,"MEAN_MOTION_DOT":1.18e-6,"MEAN_MOTION_DDOT":0},{"OBJECT_NAME":"STARLINK-3050","OBJECT_ID":"2021-082BC","EPOCH":"2025-09-28T06:28:50.592000","MEAN_MOTION":14.98331368,"ECCENTRICITY":0.00031942,"INCLINATION":69.9996,"RA_OF_ASC_NODE":323.9719,"ARG_OF_PERICENTER":266.538,"MEAN_ANOMALY":93.5414,"EPHEMERIS_TYPE":0,"CLASSIFICATION_TYPE":"U","NORAD_CAT_ID":49180,"ELEMENT_SET_NO":999,"REV_AT_EPOCH":22331,"BSTAR":1.80883e-5,"MEAN_MOTION_DOT":1.23e-6,"MEAN_MOTION_DDOT":0},{"OBJECT_NAME":"STARLINK-3059","OBJECT_ID":"2021-082BD","EPOCH":"2025-09-28T05:47:07.393920","MEAN_MOTION":14.9834456,"ECCENTRICITY":0.00030246,"INCLINATION":70.0009,"RA_OF_ASC_NODE":344.0526,"ARG_OF_PERICENTER":255.897,"MEAN_ANOMALY":104.1853,"EPHEMERIS_TYPE":0,"CLASSIFICATION_TYPE":"U","NORAD_CAT_ID":49181,"ELEMENT_SET_NO":999,"REV_AT_EPOCH":22283,"BSTAR":3.4438148e-5,"MEAN_MOTION_DOT":3.18e-6,"MEAN_MOTION_DDOT":0},{"OBJECT_NAME":"STARLINK-3151","OBJECT_ID":"2021-104A","EPOCH":"2025-09-28T05:25:25.694976","MEAN_MOTION":15.08832547,"ECCENTRICITY":0.0001289,"INCLINATION":53.2166,"RA_OF_ASC_NODE":238.4785,"ARG_OF_PERICENTER":99.5621,"MEAN_ANOMALY":260.5517,"EPHEMERIS_TYPE":0,"CLASSIFICATION_TYPE":"U","NORAD_CAT_ID":49408,"ELEMENT_SET_NO":999,"REV_AT_EPOCH":21410,"BSTAR":0.00021740126,"MEAN_MOTION_DOT":3.173e-5,"MEAN_MOTION_DDOT":0},{"OBJECT_NAME":"STARLINK-3075","OBJECT_ID":"2021-104B","EPOCH":"2025-09-28T02:34:28.712064","MEAN_MOTION":15.08836093,"ECCENTRICITY":0.00014606,"INCLINATION":53.2162,"RA_OF_ASC_NODE":238.9838,"ARG_OF_PERICENTER":89.6137,"MEAN_ANOMALY":270.5023,"EPHEMERIS_TYPE":0,"CLASSIFICATION_TYPE":"U","NORAD_CAT_ID":49409,"ELEMENT_SET_NO":999,"REV_AT_EPOCH":21409,"BSTAR":7.4992655e-5,"MEAN_MOTION_DOT":9.06e-6,"MEAN_MOTION_DDOT":0},{"OBJECT_NAME":"STARLINK-3147","OBJECT_ID":"2021-104C","EPOCH":"2025-09-28T05:36:01.397664","MEAN_MOTION":15.08840925,"ECCENTRICITY":0.00015068,"INCLINATION":53.2174,"RA_OF_ASC_NODE":238.424,"ARG_OF_PERICENTER":87.9062,"MEAN_ANOMALY":272.2103,"EPHEMERIS_TYPE":0,"CLASSIFICATION_TYPE":"U","NORAD_CAT_ID":49410,"ELEMENT_SET_NO":999,"REV_AT_EPOCH":21410,"BSTAR":0.00010227444,"MEAN_MOTION_DOT":1.34e-5,"MEAN_MOTION_DDOT":0},{"OBJECT_NAME":"STARLINK-3162","OBJECT_ID":"2021-104D","EPOCH":"2025-09-28T03:49:59.179872","MEAN_MOTION":15.08835727,"ECCENTRICITY":0.00015039,"INCLINATION":53.2161,"RA_OF_ASC_NODE":228.7463,"ARG_OF_PERICENTER":95.5314,"MEAN_ANOMALY":264.585,"EPHEMERIS_TYPE":0,"CLASSIFICATION_TYPE":"U","NORAD_CAT_ID":49411,"ELEMENT_SET_NO":999,"REV_AT_EPOCH":21423,"BSTAR":1.48065e-5,"MEAN_MOTION_DOT":-5.2e-7,"MEAN_MOTION_DDOT":0},{"OBJECT_NAME":"STARLINK-3157","OBJECT_ID":"2021-104F","EPOCH":"2025-09-28T03:46:03.383904","MEAN_MOTION":15.08848426,"ECCENTRICITY":0.00014496,"INCLINATION":53.2164,"RA_OF_ASC_NODE":228.7695,"ARG_OF_PERICENTER":92.5748,"MEAN_ANOMALY":267.541,"EPHEMERIS_TYPE":0,"CLASSIFICATION_TYPE":"U","NORAD_CAT_ID":49413,"ELEMENT_SET_NO":999,"REV_AT_EPOCH":21423,"BSTAR":-9.1774417e-5,"MEAN_MOTION_DOT":-1.749e-5,"MEAN_MOTION_DDOT":0}]
